COSMOS 2251 DEB         
1 34116U 93036KM  17345.75337941  .00000352  00000-0  11922-3 0  9993
2 34116  74.0454 210.4087 0016362 285.8731 148.4999 14.40368174463134
